{"type":"FeatureCollection","name":"Bangladesh divisions","source":"geoBoundaries gbOpen BGD ADM1, CC BY 4.0","features":[{"type":"Feature","properties":{"Division":"Barishal"},"geometry":{"type":"MultiPolygon","coordinates":[[[[90.5513,21.8472],[90.5189,21.8522],[90.5091,21.8766],[90.5581,21.9481],[90.5718,21.8853],[90.5513,21.8472]]],[[[90.6623,21.9045],[90.6235,21.916],[90.6449,21.9489],[90.6634,21.9296],[90.6623,21.9045]]],[[[90.7186,21.9593],[90.6888,21.9635],[90.6944,21.9823],[90.7169,21.9776],[90.7186,21.9593]]],[[[90.4681,21.9338],[90.4349,21.9014],[90.3747,21.916],[90.3443,21.8298],[90.3241,21.8194],[90.3168,21.8366],[90.3505,21.9572],[90.3972,22.06],[90.4642,22.0256],[90.4681,21.9338]]],[[[90.5214,21.9585],[90.5073,22.0356],[90.5444,22.065],[90.5614,22.0536],[90.565,22.0159],[90.5214,21.9585]]],[[[90.9628,22.1668],[90.9615,22.1299],[90.9505,22.1311],[90.9216,22.1871],[90.9697,22.3601],[90.9903,22.3296],[90.9587,22.2355],[90.9628,22.1668]]],[[[90.6369,21.9965],[90.6184,22.0022],[90.6088,22.0446],[90.6234,22.0904],[90.5973,22.1261],[90.6028,22.1528],[90.6688,22.2266],[90.6757,22.3994],[90.6276,22.5645],[90.5685,22.6596],[90.6015,22.7293],[90.6619,22.78],[90.7266,22.7868],[90.775,22.6156],[90.8911,22.4865],[90.8655,22.3922],[90.8691,22.3418],[90.8383,22.2564],[90.833,22.1587],[90.7776,22.0894],[90.6369,21.9965]]],[[[89.9456,22.8344],[90.0416,22.9111],[90.1203,23.024],[90.1736,23.0453],[90.2106,23.0368],[90.2291,22.99],[90.2823,22.9772],[90.3402,22.9772],[90.4146,23.0268],[90.5067,22.9636],[90.6729,22.8851],[90.6812,22.8598],[90.6788,22.8359],[90.5331,22.7065],[90.5059,22.7],[90.5015,22.6757],[90.5244,22.5848],[90.5894,22.5353],[90.5887,22.4595],[90.6423,22.4356],[90.6466,22.384],[90.5569,22.1448],[90.5586,22.1098],[90.5138,22.0764],[90.3898,22.0943],[90.33,22.0275],[90.323,21.9411],[90.2711,21.8774],[90.2676,21.8219],[90.1867,21.7876],[90.0301,21.8415],[90.0433,21.8636],[90.0257,21.935],[90.0835,21.9618],[90.0766,21.9771],[90.0216,21.9949],[90.0477,22.0866],[90.0148,22.0789],[89.9887,22.0484],[89.9873,21.9923],[89.9584,21.9962],[89.9296,22.0637],[89.9186,22.1719],[89.875,22.2829],[89.9097,22.3364],[89.919,22.422],[89.9606,22.4627],[89.9421,22.4926],[89.9815,22.5375],[89.9583,22.6743],[89.8958,22.7106],[89.9398,22.7661],[89.9456,22.8344]]]]}},{"type":"Feature","properties":{"Division":"Chattogram"},"geometry":{"type":"MultiPolygon","coordinates":[[[[92.3141,20.6664],[92.3051,20.6215],[92.2864,20.656],[92.3,20.6752],[92.3141,20.6664]]],[[[91.8903,21.7907],[91.857,21.7541],[91.846,21.7586],[91.8527,21.8735],[91.8309,21.9157],[91.8739,21.9303],[91.8903,21.9208],[91.9006,21.8791],[91.8903,21.7907]]],[[[91.2363,22.6504],[91.3088,22.6203],[91.3118,22.5465],[91.2452,22.5807],[91.2333,22.6231],[91.2363,22.6504]]],[[[91.4673,22.6012],[91.5429,22.5068],[91.5695,22.3905],[91.5133,22.3452],[91.4777,22.4041],[91.3874,22.4603],[91.4022,22.5314],[91.3962,22.5985],[91.3355,22.6709],[91.4288,22.6463],[91.4673,22.6012]]],[[[91.0537,22.7234],[91.1067,22.7111],[91.1655,22.663],[91.1892,22.6114],[91.1551,22.5685],[91.1001,22.5702],[91.0726,22.5956],[91.0745,22.649],[91.0451,22.6936],[91.0537,22.7234]]],[[[91.3106,22.691],[91.2859,22.6857],[91.2433,22.7076],[91.1911,22.7435],[91.1968,22.7653],[91.2499,22.7522],[91.2461,22.7417],[91.3049,22.712],[91.3106,22.691]]],[[[91.3182,22.7662],[91.3504,22.7653],[91.3807,22.7347],[91.375,22.719],[91.3456,22.733],[91.3182,22.7662]]],[[[91.3074,24.2066],[91.2851,24.1174],[91.3103,24.043],[91.2954,24.0035],[91.2357,23.9489],[91.2318,23.783],[91.177,23.7749],[91.1948,23.6705],[91.1578,23.642],[91.1637,23.6094],[91.1903,23.5483],[91.2392,23.4899],[91.2933,23.3654],[91.3546,23.1151],[91.4086,23.0816],[91.3916,23.1614],[91.4013,23.2512],[91.4092,23.2701],[91.4444,23.2668],[91.522,23.1893],[91.5413,23.012],[91.565,22.9813],[91.586,22.9723],[91.6178,22.9869],[91.6386,22.9746],[91.7018,22.9899],[91.8131,23.1067],[91.8216,23.1656],[91.7846,23.2357],[91.7836,23.2923],[91.8841,23.4498],[91.9543,23.4446],[91.9675,23.5437],[91.9258,23.72],[91.9571,23.7452],[91.9855,23.7434],[92.0187,23.6775],[92.0737,23.6601],[92.1057,23.7192],[92.1725,23.7547],[92.2192,23.7236],[92.2228,23.6586],[92.2659,23.7453],[92.292,23.7125],[92.2841,23.6547],[92.3126,23.5785],[92.3241,23.4812],[92.3874,23.3821],[92.3733,23.3384],[92.4008,23.3106],[92.3619,23.2487],[92.3666,23.145],[92.3979,23.077],[92.3909,22.9526],[92.4576,22.8962],[92.4671,22.7837],[92.5306,22.7321],[92.5382,22.5562],[92.6123,22.2182],[92.6063,22.1255],[92.5741,22.1435],[92.6475,21.8943],[92.6087,21.7676],[92.6245,21.5167],[92.6909,21.3031],[92.6406,21.2483],[92.6055,21.2457],[92.5733,21.3022],[92.5667,21.3623],[92.5477,21.3711],[92.4576,21.3543],[92.3752,21.4726],[92.3515,21.4673],[92.3306,21.4161],[92.2861,21.4179],[92.2662,21.3667],[92.2235,21.3278],[92.2321,21.2062],[92.2084,21.1627],[92.2798,21.0765],[92.2864,21.0377],[92.2725,21.0044],[92.2993,20.9547],[92.3584,20.7283],[92.2357,20.8797],[92.2033,20.9727],[92.0691,21.1606],[92.0506,21.262],[92.002,21.3806],[92.0089,21.499],[91.9094,21.5033],[91.8969,21.7081],[91.925,21.792],[91.9354,21.9158],[91.9147,22.0504],[91.7591,22.3055],[91.7517,22.3768],[91.6673,22.5465],[91.5266,22.6969],[91.4807,22.7707],[91.414,22.7734],[91.377,22.8253],[91.3237,22.7789],[91.1726,22.8376],[91.137,22.8048],[91.0674,22.7966],[90.9859,22.854],[91.0467,22.6327],[91.02,22.5479],[91.1086,22.4734],[91.141,22.3857],[91.1503,22.1758],[91.1225,22.1115],[91.0369,22.0943],[91.0207,22.12],[91.06,22.3288],[91.0407,22.4493],[91.0141,22.5041],[90.9385,22.5656],[90.82,22.7543],[90.786,22.869],[90.586,23.0613],[90.5771,23.1389],[90.6602,23.2557],[90.6536,23.3097],[90.6008,23.3798],[90.5949,23.4165],[90.626,23.494],[90.6867,23.5035],[90.7089,23.5252],[90.666,23.646],[90.6764,23.6705],[90.7341,23.7084],[90.7371,23.7681],[90.7593,23.7911],[90.7712,23.8508],[90.9178,23.8738],[90.9919,23.9645],[91.0007,24.0335],[91.0615,24.0795],[91.0659,24.1133],[91.0393,24.185],[91.06,24.2066],[91.0941,24.2012],[91.1355,24.2336],[91.1815,24.243],[91.2585,24.2444],[91.3103,24.2309],[91.3074,24.2066]]]]}},{"type":"Feature","properties":{"Division":"Dhaka"},"geometry":{"type":"Polygon","coordinates":[[[91.2149,24.2436],[91.1355,24.2336],[91.0941,24.2012],[91.06,24.2066],[91.0393,24.185],[91.0659,24.1133],[91.0615,24.0795],[91.0007,24.0335],[90.9919,23.9645],[90.9178,23.8738],[90.7712,23.8508],[90.7593,23.7911],[90.7371,23.7681],[90.7341,23.7084],[90.6764,23.6705],[90.666,23.646],[90.7089,23.5252],[90.6867,23.5035],[90.626,23.494],[90.5949,23.4165],[90.6008,23.3798],[90.6536,23.3097],[90.6602,23.2557],[90.5771,23.1389],[90.5898,23.0569],[90.5601,23.0432],[90.53,23.0837],[90.4976,23.0922],[90.4467,23.039],[90.3402,22.9772],[90.2291,22.99],[90.2106,23.0368],[90.1736,23.0453],[90.1203,23.024],[90.0416,22.9111],[89.9456,22.8344],[89.8561,22.8439],[89.8172,22.8748],[89.8132,22.9451],[89.7524,23.0144],[89.7375,23.0547],[89.6784,23.1085],[89.752,23.1412],[89.7399,23.1702],[89.6898,23.1718],[89.6926,23.2075],[89.6746,23.2246],[89.6313,23.2349],[89.6538,23.2763],[89.6127,23.2964],[89.5823,23.3605],[89.5869,23.4702],[89.5028,23.4999],[89.5078,23.5441],[89.4243,23.6757],[89.3812,23.6628],[89.3302,23.6894],[89.3055,23.7256],[89.3266,23.8294],[89.3135,23.864],[89.2589,23.8905],[89.2553,23.9123],[89.4075,23.8793],[89.4374,23.8592],[89.4638,23.8061],[89.5052,23.79],[89.5474,23.7956],[89.5764,23.8214],[89.6406,23.7715],[89.7936,23.765],[89.7866,23.86],[89.7593,23.9267],[89.718,23.9741],[89.7998,24.0304],[89.8087,24.0735],[89.7977,24.2803],[89.7606,24.3592],[89.7606,24.408],[89.7372,24.4356],[89.7537,24.4918],[89.74,24.5256],[89.8746,24.6493],[89.8952,24.7504],[89.9351,24.7654],[89.99,24.7267],[90.0477,24.7903],[90.0876,24.7916],[90.1343,24.7354],[90.1535,24.6368],[90.1439,24.5943],[90.2057,24.5243],[90.2483,24.5006],[90.2332,24.4656],[90.2593,24.413],[90.2593,24.338],[90.2717,24.3092],[90.3143,24.2841],[90.4805,24.3455],[90.5493,24.3192],[90.5863,24.2816],[90.6454,24.2891],[90.6688,24.3254],[90.6509,24.363],[90.6729,24.4293],[90.607,24.4768],[90.6152,24.5081],[90.7073,24.4993],[90.8337,24.5356],[90.8996,24.5906],[91.1538,24.6231],[91.1923,24.6418],[91.239,24.5643],[91.2363,24.5331],[91.1619,24.4825],[91.1997,24.4697],[91.2217,24.4857],[91.2428,24.4641],[91.2235,24.4321],[91.2569,24.4001],[91.2279,24.3817],[91.241,24.3432],[91.1751,24.3055],[91.2149,24.2436]]]}},{"type":"Feature","properties":{"Division":"Khulna"},"geometry":{"type":"MultiPolygon","coordinates":[[[[89.3572,21.6887],[89.3189,21.7122],[89.3167,21.7488],[89.3476,21.7311],[89.3572,21.6887]]],[[[89.9051,22.8486],[89.9456,22.8344],[89.9398,22.7661],[89.8958,22.7106],[89.9583,22.6743],[89.9815,22.5375],[89.9421,22.4926],[89.9606,22.4627],[89.919,22.422],[89.9097,22.3364],[89.875,22.2829],[89.9005,22.2293],[89.8958,22.1093],[89.865,22.0853],[89.8737,21.859],[89.8523,21.8251],[89.8093,21.8151],[89.6698,21.8251],[89.7106,21.7733],[89.6998,21.7533],[89.6054,21.7513],[89.6247,21.7075],[89.5839,21.6995],[89.5453,21.7753],[89.5624,21.9307],[89.556,21.9904],[89.5345,21.9964],[89.5109,21.9128],[89.4551,21.8351],[89.4937,21.7912],[89.4506,21.7231],[89.4075,21.7051],[89.346,21.8195],[89.3758,21.8968],[89.3401,21.8929],[89.2975,21.7603],[89.3003,21.643],[89.2246,21.6226],[89.2035,21.6545],[89.2396,21.6978],[89.2141,21.728],[89.2158,21.7631],[89.149,21.7868],[89.098,21.897],[89.098,21.9867],[89.0365,22.0942],[89.0955,22.1566],[89.0845,22.2075],[89.0076,22.294],[88.9939,22.3613],[89.0062,22.468],[88.9581,22.5581],[88.9664,22.6026],[88.9348,22.6482],[88.9636,22.6977],[88.9184,22.7409],[88.9205,22.7746],[88.957,22.8418],[88.869,22.9091],[88.8996,22.9248],[88.867,22.946],[88.867,22.9813],[88.9018,23.0369],[88.8729,23.1103],[88.9265,23.133],[88.9719,23.2063],[88.8304,23.2517],[88.8111,23.2505],[88.8111,23.2277],[88.7905,23.2277],[88.7287,23.2644],[88.741,23.4122],[88.7779,23.4584],[88.7611,23.4953],[88.7007,23.5322],[88.6404,23.6029],[88.5565,23.6674],[88.5861,23.6717],[88.5732,23.7088],[88.5952,23.7536],[88.5755,23.7866],[88.6144,23.8061],[88.5924,23.8688],[88.624,23.8889],[88.6618,23.8745],[88.7463,23.9251],[88.7287,24.0175],[88.7436,24.0536],[88.7058,24.0962],[88.6988,24.1355],[88.7111,24.1885],[88.7533,24.1829],[88.8069,24.1323],[88.974,24.1299],[89.091,23.9637],[89.1508,23.938],[89.1974,23.9323],[89.2079,23.9661],[89.2537,23.9564],[89.2589,23.8905],[89.3135,23.864],[89.3266,23.8294],[89.3055,23.7256],[89.3302,23.6894],[89.3812,23.6628],[89.4243,23.6757],[89.5078,23.5441],[89.5028,23.4999],[89.5869,23.4702],[89.5823,23.3605],[89.6127,23.2964],[89.6538,23.2763],[89.6313,23.2349],[89.6746,23.2246],[89.6926,23.2075],[89.6898,23.1718],[89.7399,23.1702],[89.752,23.1412],[89.6784,23.1085],[89.7375,23.0547],[89.7524,23.0144],[89.8132,22.9451],[89.8096,22.8934],[89.8338,22.8535],[89.8716,22.8403],[89.9051,22.8486]]]]}},{"type":"Feature","properties":{"Division":"Mymensingh"},"geometry":{"type":"Polygon","coordinates":[[[91.1939,24.64],[91.0247,24.6006],[90.8996,24.5906],[90.8337,24.5356],[90.7073,24.4993],[90.6152,24.5081],[90.607,24.4768],[90.6729,24.4293],[90.6509,24.363],[90.6688,24.3254],[90.6454,24.2891],[90.5863,24.2816],[90.5493,24.3192],[90.4805,24.3455],[90.3143,24.2841],[90.2717,24.3092],[90.2593,24.338],[90.2593,24.413],[90.2332,24.4656],[90.2483,24.5006],[90.2057,24.5243],[90.1439,24.5943],[90.1535,24.6368],[90.1343,24.7354],[90.0876,24.7916],[90.0477,24.7903],[89.99,24.7267],[89.9351,24.7654],[89.8952,24.7504],[89.8746,24.6493],[89.7995,24.5792],[89.7971,24.6521],[89.8182,24.6944],[89.8094,24.736],[89.754,24.8134],[89.6889,24.8382],[89.6977,24.886],[89.6612,24.9829],[89.6848,25.1346],[89.7213,25.1929],[89.7728,25.2317],[89.7664,25.3676],[89.79,25.3909],[89.8287,25.354],[89.8308,25.3113],[89.8566,25.3016],[89.9317,25.3191],[90.1292,25.2376],[90.3847,25.1676],[90.6896,25.1696],[90.7797,25.1851],[90.9472,25.1599],[90.9773,25.1715],[90.9862,25.1155],[90.967,25.0109],[91.0027,24.9113],[91.1373,24.8701],[91.1593,24.8165],[91.217,24.8165],[91.1758,24.7579],[91.2596,24.693],[91.2363,24.658],[91.1939,24.64]]]}},{"type":"Feature","properties":{"Division":"Rajshahi"},"geometry":{"type":"Polygon","coordinates":[[[89.7995,24.5792],[89.74,24.5256],[89.7537,24.4918],[89.7372,24.4356],[89.7606,24.408],[89.7606,24.3592],[89.7977,24.2803],[89.8087,24.0735],[89.7998,24.0304],[89.718,23.9741],[89.7593,23.9267],[89.7866,23.86],[89.7936,23.765],[89.732,23.7602],[89.6406,23.7715],[89.5764,23.8214],[89.5474,23.7956],[89.5052,23.79],[89.4638,23.8061],[89.4374,23.8592],[89.4075,23.8793],[89.2553,23.9123],[89.2537,23.9564],[89.2079,23.9661],[89.1974,23.9323],[89.1851,23.9323],[89.091,23.9637],[88.974,24.1299],[88.8069,24.1323],[88.7533,24.1829],[88.7111,24.1885],[88.7304,24.2663],[88.7067,24.3104],[88.668,24.336],[88.6275,24.3031],[88.5871,24.324],[88.5317,24.3152],[88.2935,24.4543],[88.1879,24.4689],[88.0973,24.5393],[88.0973,24.5897],[88.0208,24.6849],[88.0678,24.7751],[88.1567,24.8456],[88.1443,24.9023],[88.119,24.9186],[88.1753,24.963],[88.2248,24.9467],[88.262,24.886],[88.2974,24.8691],[88.3329,24.8753],[88.3329,24.938],[88.3869,24.9579],[88.4083,25.0084],[88.4359,25.0227],[88.419,25.0722],[88.4376,25.0793],[88.4291,25.1277],[88.4584,25.1598],[88.4477,25.1929],[88.5029,25.2072],[88.5361,25.1797],[88.5788,25.1756],[88.5968,25.2006],[88.6965,25.2092],[88.7809,25.1784],[88.8425,25.2013],[88.9218,25.1755],[88.9424,25.2551],[88.9897,25.2713],[89.0347,25.2479],[89.1821,25.2174],[89.1754,25.1761],[89.2266,25.1237],[89.3774,25.0599],[89.5513,25.0288],[89.6728,25.0633],[89.6612,24.9829],[89.6977,24.886],[89.6889,24.8382],[89.754,24.8134],[89.8094,24.736],[89.8182,24.6944],[89.7971,24.6521],[89.7995,24.5792]]]}},{"type":"Feature","properties":{"Division":"Rangpur"},"geometry":{"type":"Polygon","coordinates":[[[89.79,25.3909],[89.7664,25.3676],[89.7728,25.2317],[89.7213,25.1929],[89.6848,25.1346],[89.6728,25.0633],[89.5513,25.0288],[89.3774,25.0599],[89.2266,25.1237],[89.1754,25.1761],[89.1821,25.2174],[88.9672,25.2698],[88.9581,25.3057],[88.8702,25.3293],[88.8152,25.4013],[88.7974,25.5266],[88.7823,25.5179],[88.7562,25.5315],[88.7493,25.4981],[88.6812,25.477],[88.6062,25.5023],[88.5468,25.502],[88.5014,25.5343],[88.4859,25.5663],[88.438,25.5857],[88.4265,25.6492],[88.3595,25.6895],[88.2383,25.8071],[88.2136,25.7777],[88.1736,25.7959],[88.1489,25.7686],[88.1021,25.7985],[88.0881,25.8172],[88.0813,25.919],[88.107,25.94],[88.1193,25.9859],[88.1588,25.9938],[88.1694,26.0159],[88.15,26.0768],[88.172,26.1155],[88.2169,26.1401],[88.2255,26.1773],[88.2583,26.1705],[88.3278,26.1941],[88.3455,26.2119],[88.3332,26.249],[88.3487,26.2878],[88.3955,26.2958],[88.4416,26.3523],[88.4694,26.3559],[88.4798,26.3423],[88.5032,26.3572],[88.451,26.4443],[88.4107,26.4401],[88.3671,26.4623],[88.3491,26.4285],[88.3159,26.4433],[88.3246,26.4956],[88.352,26.5243],[88.3723,26.5827],[88.4134,26.621],[88.4263,26.5279],[88.4792,26.5178],[88.491,26.4881],[88.5158,26.4891],[88.5203,26.4684],[88.5704,26.4357],[88.585,26.4327],[88.6008,26.4674],[88.6272,26.4155],[88.6903,26.3873],[88.6987,26.3535],[88.6846,26.3485],[88.7004,26.3349],[88.7471,26.3404],[88.7477,26.3061],[88.8118,26.2894],[88.8068,26.2501],[88.8467,26.2092],[88.885,26.2758],[88.9576,26.2269],[89.046,26.2314],[89.0099,26.2829],[88.9711,26.2864],[88.9762,26.3318],[88.9126,26.3404],[88.8839,26.3737],[88.9058,26.4135],[88.9508,26.4382],[89.0189,26.3954],[89.0831,26.3893],[89.1045,26.3757],[89.0842,26.3621],[89.0842,26.3258],[89.1461,26.3046],[89.1,26.2778],[89.1005,26.2607],[89.1337,26.2324],[89.1326,26.1683],[89.1588,26.1323],[89.2297,26.1019],[89.2596,26.0699],[89.2499,26.0583],[89.3797,25.9958],[89.4046,26.0035],[89.4237,26.0424],[89.4594,25.9962],[89.5189,25.9916],[89.5452,25.9508],[89.5765,25.9498],[89.5627,26.025],[89.642,26.0559],[89.6327,26.1068],[89.6142,26.1044],[89.6008,26.0702],[89.5899,26.0921],[89.5921,26.1579],[89.6436,26.2266],[89.6791,26.2154],[89.6754,26.1486],[89.7407,26.1536],[89.7939,26.0807],[89.784,26.0414],[89.8239,25.9879],[89.8564,25.9763],[89.8216,25.9523],[89.8827,25.9206],[89.8158,25.8251],[89.8467,25.7668],[89.823,25.7292],[89.8672,25.6621],[89.8191,25.4013],[89.827,25.3556],[89.79,25.3909]]]}},{"type":"Feature","properties":{"Division":"Sylhet"},"geometry":{"type":"Polygon","coordinates":[[[91.2954,24.0035],[91.3103,24.043],[91.2851,24.1525],[91.3103,24.2309],[91.2149,24.2436],[91.1751,24.3055],[91.241,24.3432],[91.2279,24.3817],[91.2569,24.4001],[91.2235,24.4321],[91.2428,24.4641],[91.2217,24.4857],[91.1997,24.4697],[91.1619,24.4825],[91.2363,24.5331],[91.239,24.5643],[91.1939,24.64],[91.2363,24.658],[91.2596,24.693],[91.1758,24.7579],[91.217,24.8165],[91.1593,24.8165],[91.1373,24.8701],[91.0027,24.9113],[90.967,25.0109],[90.9862,25.1155],[90.9773,25.1715],[91.0289,25.198],[91.2763,25.2162],[91.3354,25.1794],[91.3898,25.1931],[91.4997,25.1497],[91.5912,25.1788],[91.6754,25.1507],[91.7543,25.1843],[91.8483,25.1762],[92.0871,25.2127],[92.2528,25.1109],[92.3361,25.1068],[92.3546,25.0701],[92.4306,25.0258],[92.434,24.9947],[92.4807,24.9763],[92.4892,24.9263],[92.4768,24.8916],[92.3226,24.8778],[92.2725,24.8492],[92.2826,24.7746],[92.2348,24.721],[92.1954,24.5977],[92.1312,24.5312],[92.1596,24.4218],[92.095,24.3955],[91.992,24.3968],[92.0126,24.3667],[91.9233,24.3417],[91.926,24.2202],[91.904,24.1864],[91.8862,24.1801],[91.768,24.2428],[91.7584,24.2315],[91.7749,24.1713],[91.7515,24.1601],[91.6512,24.2152],[91.6347,24.2089],[91.6279,24.0873],[91.544,24.0823],[91.4011,24.1337],[91.3819,24.1174],[91.4025,24.0622],[91.3901,24.0108],[91.3682,23.992],[91.2954,24.0035]]]}}]}
